QIANFAN-65              
1 62795U 25016L   25311.25371317  .00000049  00000+0  56654-4 0  9996
2 62795  88.9733 106.7279 0015594  87.0357 273.2579 13.50974646 42450
QIANFAN-66              
1 62796U 25016M   25311.28254817  .00000046  00000+0  52687-4 0  9994
2 62796  88.9753 106.6881 0016678  82.9068 277.3979 13.50978633 42503
QIANFAN-67              
1 62797U 25016N   25311.28666832  .00000056  00000+0  68412-4 0  9993
2 62797  88.9743 106.7167 0016688  89.1108 271.1955 13.50971504 42478
QIANFAN-68              
1 62798U 25016P   25311.27842533  .00000056  00000+0  67263-4 0  9990
2 62798  88.9747 106.7614 0016732  87.5589 272.7477 13.50973825 42457
QIANFAN-69              
1 62799U 25016Q   25311.22089888  .00000044  00000+0  49231-4 0  9994
2 62799  88.9725 106.6445 0017498  88.6100 271.7056 13.50971120 42487
QIANFAN-70              
1 62800U 25016R   25311.23716908  .00000061  00000+0  76182-4 0  9992
2 62800  88.9746 106.7738 0017035  79.8640 280.4432 13.50974144 42447
QIANFAN-71              
1 62801U 25016S   25311.23314114  .00000043  00000+0  47905-4 0  9997
2 62801  88.9740 106.7559 0017428  91.7523 268.5625 13.50974840 42446
QIANFAN-72              
1 62802U 25016T   25311.24961486  .00000057  00000+0  68596-4 0  9993
2 62802  88.9731 106.7710 0020696  98.2675 262.0824 13.50974691 42430
